{
  "type": "FeatureCollection",
  "features": [
    {
      "type": "Feature",
      "properties": {
        "norad_id": 56564,
        "name": "BEIDOU-3 G4 (C62)",
        "group": "beidou",
        "lat": 0.15972146675537632,
        "lon": -46.35616331126075,
        "alt_km": 35795.35532056137,
        "timestamp": "2025-12-10T04:57:29.883692+00:00",
        "meta_object_name": "BEIDOU-3 G4 (C62)",
        "meta_object_id": "2023-066A",
        "meta_epoch": "2025-12-09T19:28:14.509920",
        "meta_mean_motion": 1.00271293,
        "meta_eccentricity": 0.0002997,
        "meta_inclination": 0.8211,
        "meta_ra_of_asc_node": 301.8358,
        "meta_arg_of_pericenter": 235.0993,
        "meta_mean_anomaly": 353.9886,
        "meta_ephemeris_type": 0,
        "meta_classification_type": "U",
        "meta_norad_cat_id": 56564,
        "meta_element_set_no": 999,
        "meta_rev_at_epoch": 949,
        "meta_bstar": 0,
        "meta_mean_motion_dot": -1.08e-06,
        "meta_mean_motion_ddot": 0,
        "tle_line1": "1 56564U 23066A   25343.81127905 -.00000108  00000+0  00000+0 0  9991",
        "tle_line2": "2 56564   0.8211 301.8358 0002997 235.0993 353.9886  1.00271293  9495"
      },
      "geometry": {
        "type": "Point",
        "coordinates": [
          -46.35616331126075,
          0.15972146675537632
        ]
      }
    },
    {
      "type": "Feature",
      "properties": {
        "norad_id": 58654,
        "name": "BEIDOU-3 M28 (C50)",
        "group": "beidou",
        "lat": -43.202692734201115,
        "lon": 28.678674781266746,
        "alt_km": 21528.01655679875,
        "timestamp": "2025-12-10T04:57:29.883704+00:00",
        "meta_object_name": "BEIDOU-3 M28 (C50)",
        "meta_object_id": "2023-207A",
        "meta_epoch": "2025-12-09T05:11:28.664736",
        "meta_mean_motion": 1.86229641,
        "meta_eccentricity": 0.0002291,
        "meta_inclination": 55.5815,
        "meta_ra_of_asc_node": 68.7207,
        "meta_arg_of_pericenter": 268.7348,
        "meta_mean_anomaly": 91.2612,
        "meta_ephemeris_type": 0,
        "meta_classification_type": "U",
        "meta_norad_cat_id": 58654,
        "meta_element_set_no": 999,
        "meta_rev_at_epoch": 1330,
        "meta_bstar": 0,
        "meta_mean_motion_dot": -4.9e-07,
        "meta_mean_motion_ddot": 0,
        "tle_line1": "1 58654U 23207A   25343.21630399 -.00000049  00000+0  00000+0 0  9994",
        "tle_line2": "2 58654  55.5815  68.7207 0002291 268.7348  91.2612  1.86229641 13308"
      },
      "geometry": {
        "type": "Point",
        "coordinates": [
          28.678674781266746,
          -43.202692734201115
        ]
      }
    },
    {
      "type": "Feature",
      "properties": {
        "norad_id": 58655,
        "name": "BEIDOU-3 M26 (C48)",
        "group": "beidou",
        "lat": 54.243814101650536,
        "lon": 140.63336532687984,
        "alt_km": 21532.021329119227,
        "timestamp": "2025-12-10T04:57:29.883715+00:00",
        "meta_object_name": "BEIDOU-3 M26 (C48)",
        "meta_object_id": "2023-207B",
        "meta_epoch": "2025-12-09T13:13:20.106624",
        "meta_mean_motion": 1.86231165,
        "meta_eccentricity": 0.00037,
        "meta_inclination": 55.5839,
        "meta_ra_of_asc_node": 68.6957,
        "meta_arg_of_pericenter": 254.5617,
        "meta_mean_anomaly": 105.42,
        "meta_ephemeris_type": 0,
        "meta_classification_type": "U",
        "meta_norad_cat_id": 58655,
        "meta_element_set_no": 999,
        "meta_rev_at_epoch": 1329,
        "meta_bstar": 0,
        "meta_mean_motion_dot": -5.1e-07,
        "meta_mean_motion_ddot": 0,
        "tle_line1": "1 58655U 23207B   25343.55092716 -.00000051  00000+0  00000+0 0  9990",
        "tle_line2": "2 58655  55.5839  68.6957 0003700 254.5617 105.4200  1.86231165 13297"
      },
      "geometry": {
        "type": "Point",
        "coordinates": [
          140.63336532687984,
          54.243814101650536
        ]
      }
    },
    {
      "type": "Feature",
      "properties": {
        "norad_id": 61186,
        "name": "BEIDOU-3 M25 (C47)",
        "group": "beidou",
        "lat": -13.378437118209321,
        "lon": 138.50351987731608,
        "alt_km": 21532.675784519393,
        "timestamp": "2025-12-10T04:57:29.883726+00:00",
        "meta_object_name": "BEIDOU-3 M25 (C47)",
        "meta_object_id": "2024-168B",
        "meta_epoch": "2025-12-09T12:38:32.089056",
        "meta_mean_motion": 1.86229941,
        "meta_eccentricity": 0.0005432,
        "meta_inclination": 54.6447,
        "meta_ra_of_asc_node": 308.8306,
        "meta_arg_of_pericenter": 296.174,
        "meta_mean_anomaly": 164.5169,
        "meta_ephemeris_type": 0,
        "meta_classification_type": "U",
        "meta_norad_cat_id": 61186,
        "meta_element_set_no": 999,
        "meta_rev_at_epoch": 825,
        "meta_bstar": 0,
        "meta_mean_motion_dot": -7.8e-07,
        "meta_mean_motion_ddot": 0,
        "tle_line1": "1 61186U 24168B   25343.52676029 -.00000078  00000+0  00000+0 0  9991",
        "tle_line2": "2 61186  54.6447 308.8306 0005432 296.1740 164.5169  1.86229941  8254"
      },
      "geometry": {
        "type": "Point",
        "coordinates": [
          138.50351987731608,
          -13.378437118209321
        ]
      }
    },
    {
      "type": "Feature",
      "properties": {
        "norad_id": 61187,
        "name": "BEIDOU-3 M27 (C49)",
        "group": "beidou",
        "lat": -22.950593945485043,
        "lon": -68.71430172736414,
        "alt_km": 21524.703353412864,
        "timestamp": "2025-12-10T04:57:29.883737+00:00",
        "meta_object_name": "BEIDOU-3 M27 (C49)",
        "meta_object_id": "2024-168C",
        "meta_epoch": "2025-12-09T06:37:59.333088",
        "meta_mean_motion": 1.86230065,
        "meta_eccentricity": 0.0002332,
        "meta_inclination": 54.6404,
        "meta_ra_of_asc_node": 308.8229,
        "meta_arg_of_pericenter": 334.2122,
        "meta_mean_anomaly": 93.5537,
        "meta_ephemeris_type": 0,
        "meta_classification_type": "U",
        "meta_norad_cat_id": 61187,
        "meta_element_set_no": 999,
        "meta_rev_at_epoch": 572,
        "meta_bstar": 0,
        "meta_mean_motion_dot": -7.6e-07,
        "meta_mean_motion_ddot": 0,
        "tle_line1": "1 61187U 24168C   25343.27638117 -.00000076  00000+0  00000+0 0  9998",
        "tle_line2": "2 61187  54.6404 308.8229 0002332 334.2122  93.5537  1.86230065  5724"
      },
      "geometry": {
        "type": "Point",
        "coordinates": [
          -68.71430172736414,
          -22.950593945485043
        ]
      }
    }
  ]
}